start=new Date('2022-03-24T00:00:00.000Z').valueOf();
sats=[{"EPHEMERIS_TYPE":"0","TLE_LINE2":"2 48387  53.0564   4.7626 0001912  52.1788 307.9374 15.06406926 49065","REV_AT_EPOCH":"4906","GP_ID":"199476375","MEAN_ANOMALY":"307.9374","SITE":"AFETR","FILE":"3371208","MEAN_MOTION":"15.06406926","ARG_OF_PERICENTER":"52.1788","MEAN_ELEMENT_THEORY":"SGP4","NORAD_CAT_ID":"48387","LAUNCH_DATE":"2021-05-04","RCS_SIZE":"LARGE","COUNTRY_CODE":"US","ELEMENT_SET_NO":"999","OBJECT_TYPE":"PAYLOAD","TLE_LINE1":"1 48387U 21038AL  22082.17666974 -.00002861  00000-0 -17321-3 0  9990","INCLINATION":"53.0564","CENTER_NAME":"EARTH","RA_OF_ASC_NODE":"4.7626","ECCENTRICITY":"0.00019120","TIME_SYSTEM":"UTC","REF_FRAME":"TEME","OBJECT_NAME":"STARLINK-2600","MEAN_MOTION_DDOT":"0.0000000000000","APOAPSIS":"548.516","PERIAPSIS":"545.868","SEMIMAJOR_AXIS":"6925.327","BSTAR":"-0.00017321000000","CLASSIFICATION_TYPE":"U","EPOCH":"2022-03-23T04:14:24.265536","DECAY_DATE":null,"MEAN_MOTION_DOT":"-0.00002861","OBJECT_ID":"2021-038AL","PERIOD":"95.592"},{"RCS_SIZE":"LARGE","COUNTRY_CODE":"US","NORAD_CAT_ID":"48388","MEAN_ELEMENT_THEORY":"SGP4","LAUNCH_DATE":"2021-05-04","MEAN_MOTION":"15.06410927","FILE":"3371490","ARG_OF_PERICENTER":"64.8537","SITE":"AFETR","MEAN_ANOMALY":"295.2629","REV_AT_EPOCH":"4970","GP_ID":"199511643","TLE_LINE2":"2 48388  53.0561   3.2939 0001707  64.8537 295.2629 15.06410927 49707","EPHEMERIS_TYPE":"0","MEAN_MOTION_DOT":"0.00006649","DECAY_DATE":null,"PERIOD":"95.591","OBJECT_ID":"2021-038AM","BSTAR":"0.00046471000000","EPOCH":"2022-03-23T12:02:49.858944","CLASSIFICATION_TYPE":"U","PERIAPSIS":"545.998","APOAPSIS":"548.362","SEMIMAJOR_AXIS":"6925.315","OBJECT_NAME":"STARLINK-2594","REF_FRAME":"TEME","MEAN_MOTION_DDOT":"0.0000000000000","ECCENTRICITY":"0.00017070","TIME_SYSTEM":"UTC","RA_OF_ASC_NODE":"3.2939","TLE_LINE1":"1 48388U 21038AM  22082.50196596  .00006649  00000-0  46471-3 0  9990","CENTER_NAME":"EARTH","INCLINATION":"53.0561","ELEMENT_SET_NO":"999","OBJECT_TYPE":"PAYLOAD"},{"RA_OF_ASC_NODE":"359.8413","TIME_SYSTEM":"UTC","ECCENTRICITY":"0.00016460","OBJECT_TYPE":"PAYLOAD","ELEMENT_SET_NO":"999","CENTER_NAME":"EARTH","INCLINATION":"53.0579","TLE_LINE1":"1 48389U 21038AN  22082.15780143  .00000465  00000-0  50131-4 0  9998","EPOCH":"2022-03-23T03:47:14.043552","CLASSIFICATION_TYPE":"U","BSTAR":"0.00005013100000","PERIOD":"95.593","OBJECT_ID":"2021-038AN","DECAY_DATE":null,"MEAN_MOTION_DOT":"0.00000465","MEAN_MOTION_DDOT":"0.0000000000000","OBJECT_NAME":"STARLINK-1904","REF_FRAME":"TEME","SEMIMAJOR_AXIS":"6925.369","PERIAPSIS":"546.094","APOAPSIS":"548.374","GP_ID":"199477370","REV_AT_EPOCH":"4912","SITE":"AFETR","MEAN_ANOMALY":"299.9193","EPHEMERIS_TYPE":"0","TLE_LINE2":"2 48389  53.0579 359.8413 0001646  60.1959 299.9193 15.06393415 49128","LAUNCH_DATE":"2021-05-04","NORAD_CAT_ID":"48389","MEAN_ELEMENT_THEORY":"SGP4","COUNTRY_CODE":"US","RCS_SIZE":"LARGE","ARG_OF_PERICENTER":"60.1959","MEAN_MOTION":"15.06393415","FILE":"3371208"},{"TLE_LINE1":"1 48390U 21038AP  22082.48584898  .00000613  00000-0  60028-4 0  9996","CENTER_NAME":"EARTH","INCLINATION":"53.0557","ELEMENT_SET_NO":"999","OBJECT_TYPE":"PAYLOAD","ECCENTRICITY":"0.00017180","TIME_SYSTEM":"UTC","RA_OF_ASC_NODE":"358.3785","APOAPSIS":"548.415","PERIAPSIS":"546.035","SEMIMAJOR_AXIS":"6925.360","REF_FRAME":"TEME","OBJECT_NAME":"STARLINK-2586","MEAN_MOTION_DDOT":"0.0000000000000","MEAN_MOTION_DOT":"0.00000613","DECAY_DATE":null,"OBJECT_ID":"2021-038AP","PERIOD":"95.592","BSTAR":"0.00006002800000","CLASSIFICATION_TYPE":"U","EPOCH":"2022-03-23T11:39:37.351872","TLE_LINE2":"2 48390  53.0557 358.3785 0001718  55.4375 304.6776 15.06396275 50390","EPHEMERIS_TYPE":"0","MEAN_ANOMALY":"304.6776","SITE":"AFETR","REV_AT_EPOCH":"5039","GP_ID":"199477612","FILE":"3371208","MEAN_MOTION":"15.06396275","ARG_OF_PERICENTER":"55.4375","RCS_SIZE":"MEDIUM","COUNTRY_CODE":"US","MEAN_ELEMENT_THEORY":"SGP4","NORAD_CAT_ID":"48390","LAUNCH_DATE":"2021-05-04"},{"RA_OF_ASC_NODE":"358.3905","ECCENTRICITY":"0.00018310","TIME_SYSTEM":"UTC","ELEMENT_SET_NO":"999","OBJECT_TYPE":"PAYLOAD","TLE_LINE1":"1 48391U 21038AQ  22082.48216532  .00000457  00000-0  49584-4 0  9994","CENTER_NAME":"EARTH","INCLINATION":"53.0574","BSTAR":"0.00004958400000","CLASSIFICATION_TYPE":"U","EPOCH":"2022-03-23T11:34:19.083648","MEAN_MOTION_DOT":"0.00000457","DECAY_DATE":null,"OBJECT_ID":"2021-038AQ","PERIOD":"95.592","REF_FRAME":"TEME","OBJECT_NAME":"STARLINK-2607","MEAN_MOTION_DDOT":"0.0000000000000","APOAPSIS":"548.493","PERIAPSIS":"545.957","SEMIMAJOR_AXIS":"6925.360","REV_AT_EPOCH":"5039","GP_ID":"199476876","MEAN_ANOMALY":"311.3965","SITE":"AFETR","EPHEMERIS_TYPE":"0","TLE_LINE2":"2 48391  53.0574 358.3905 0001831  48.7182 311.3965 15.06396211 50396","MEAN_ELEMENT_THEORY":"SGP4","NORAD_CAT_ID":"48391","LAUNCH_DATE":"2021-05-04","RCS_SIZE":"LARGE","COUNTRY_CODE":"US","FILE":"3371208","MEAN_MOTION":"15.06396211","ARG_OF_PERICENTER":"48.7182"},{"MEAN_ANOMALY":"309.6774","SITE":"AFETR","GP_ID":"199537420","REV_AT_EPOCH":"5044","EPHEMERIS_TYPE":"0","TLE_LINE2":"2 48392  53.0571 356.9180 0001833  50.4377 309.6774 15.06405253 50442","COUNTRY_CODE":"US","RCS_SIZE":"LARGE","LAUNCH_DATE":"2021-05-04","MEAN_ELEMENT_THEORY":"SGP4","NORAD_CAT_ID":"48392","ARG_OF_PERICENTER":"50.4377","FILE":"3371636","MEAN_MOTION":"15.06405253","TIME_SYSTEM":"UTC","ECCENTRICITY":"0.00018330","RA_OF_ASC_NODE":"356.9180","INCLINATION":"53.0571","CENTER_NAME":"EARTH","TLE_LINE1":"1 48392U 21038AR  22082.81021157  .00004190  00000-0  29998-3 0  9993","OBJECT_TYPE":"PAYLOAD","ELEMENT_SET_NO":"999","OBJECT_ID":"2021-038AR","PERIOD":"95.592","MEAN_MOTION_DOT":"0.00004190","DECAY_DATE":null,"CLASSIFICATION_TYPE":"U","EPOCH":"2022-03-23T19:26:42.279648","BSTAR":"0.00029998000000","SEMIMAJOR_AXIS":"6925.332","APOAPSIS":"548.467","PERIAPSIS":"545.928","MEAN_MOTION_DDOT":"0.0000000000000","REF_FRAME":"TEME","OBJECT_NAME":"STARLINK-2605"},{"RA_OF_ASC_NODE":"358.4321","ECCENTRICITY":"0.00018260","TIME_SYSTEM":"UTC","ELEMENT_SET_NO":"999","OBJECT_TYPE":"PAYLOAD","TLE_LINE1":"1 48393U 21038AS  22082.47478306  .00000588  00000-0  58376-4 0  9998","CENTER_NAME":"EARTH","INCLINATION":"53.0565","BSTAR":"0.00005837600000","CLASSIFICATION_TYPE":"U","EPOCH":"2022-03-23T11:23:41.256384","DECAY_DATE":null,"MEAN_MOTION_DOT":"0.00000588","OBJECT_ID":"2021-038AS","PERIOD":"95.592","REF_FRAME":"TEME","OBJECT_NAME":"STARLINK-2602","MEAN_MOTION_DDOT":"0.0000000000000","PERIAPSIS":"545.927","APOAPSIS":"548.456","SEMIMAJOR_AXIS":"6925.327","REV_AT_EPOCH":"4976","GP_ID":"199513102","MEAN_ANOMALY":"302.5998","SITE":"AFETR","TLE_LINE2":"2 48393  53.0565 358.4321 0001826  57.5167 302.5998 15.06407078 49767","EPHEMERIS_TYPE":"0","MEAN_ELEMENT_THEORY":"SGP4","NORAD_CAT_ID":"48393","LAUNCH_DATE":"2021-05-04","RCS_SIZE":"LARGE","COUNTRY_CODE":"US","FILE":"3371541","MEAN_MOTION":"15.06407078","ARG_OF_PERICENTER":"57.5167"},{"MEAN_MOTION_DDOT":"0.0000000000000","OBJECT_NAME":"STARLINK-2573","REF_FRAME":"TEME","SEMIMAJOR_AXIS":"6925.337","PERIAPSIS":"546.020","APOAPSIS":"548.383","EPOCH":"2022-03-23T17:40:32.685024","CLASSIFICATION_TYPE":"U","BSTAR":"0.00026288000000","PERIOD":"95.592","OBJECT_ID":"2021-038AT","DECAY_DATE":null,"MEAN_MOTION_DOT":"0.00003637","OBJECT_TYPE":"PAYLOAD","ELEMENT_SET_NO":"999","CENTER_NAME":"EARTH","INCLINATION":"53.0562","TLE_LINE1":"1 48394U 21038AT  22082.73648941  .00003637  00000-0  26288-3 0  9996","RA_OF_ASC_NODE":"357.2419","TIME_SYSTEM":"UTC","ECCENTRICITY":"0.00017060","ARG_OF_PERICENTER":"57.0668","MEAN_MOTION":"15.06403791","FILE":"3371636","LAUNCH_DATE":"2021-05-04","NORAD_CAT_ID":"48394","MEAN_ELEMENT_THEORY":"SGP4","COUNTRY_CODE":"US","RCS_SIZE":"LARGE","EPHEMERIS_TYPE":"0","TLE_LINE2":"2 48394  53.0562 357.2419 0001706  57.0668 303.0485 15.06403791 50439","GP_ID":"199538422","REV_AT_EPOCH":"5043","SITE":"AFETR","MEAN_ANOMALY":"303.0485"},{"COUNTRY_CODE":"US","RCS_SIZE":"LARGE","LAUNCH_DATE":"2021-05-04","MEAN_ELEMENT_THEORY":"SGP4","NORAD_CAT_ID":"48395","ARG_OF_PERICENTER":"56.1906","FILE":"3371636","MEAN_MOTION":"15.06398107","MEAN_ANOMALY":"303.9261","SITE":"AFETR","GP_ID":"199536670","REV_AT_EPOCH":"5044","EPHEMERIS_TYPE":"0","TLE_LINE2":"2 48395  53.0563 357.0150 0001873  56.1906 303.9261 15.06398107 50447","OBJECT_ID":"2021-038AU","PERIOD":"95.592","MEAN_MOTION_DOT":"0.00002640","DECAY_DATE":null,"CLASSIFICATION_TYPE":"U","EPOCH":"2022-03-23T18:53:30.130656","BSTAR":"0.00019607000000","SEMIMAJOR_AXIS":"6925.354","PERIAPSIS":"545.922","APOAPSIS":"548.516","MEAN_MOTION_DDOT":"0.0000000000000","REF_FRAME":"TEME","OBJECT_NAME":"STARLINK-2574","TIME_SYSTEM":"UTC","ECCENTRICITY":"0.00018730","RA_OF_ASC_NODE":"357.0150","INCLINATION":"53.0563","CENTER_NAME":"EARTH","TLE_LINE1":"1 48395U 21038AU  22082.78715429  .00002640  00000-0  19607-3 0  9998","OBJECT_TYPE":"PAYLOAD","ELEMENT_SET_NO":"999"},{"LAUNCH_DATE":"2021-05-04","MEAN_ELEMENT_THEORY":"SGP4","NORAD_CAT_ID":"48396","COUNTRY_CODE":"US","RCS_SIZE":"LARGE","ARG_OF_PERICENTER":"50.5614","FILE":"3371636","MEAN_MOTION":"15.06403411","GP_ID":"199536920","REV_AT_EPOCH":"5044","MEAN_ANOMALY":"309.5528","SITE":"AFETR","EPHEMERIS_TYPE":"0","TLE_LINE2":"2 48396  53.0556 356.9702 0001729  50.5614 309.5528 15.06403411 50448","CLASSIFICATION_TYPE":"U","EPOCH":"2022-03-23T19:10:46.467552","BSTAR":"-0.00006421300000","OBJECT_ID":"2021-038AV","PERIOD":"95.592","DECAY_DATE":null,"MEAN_MOTION_DOT":"-0.00001238","MEAN_MOTION_DDOT":"0.0000000000000","REF_FRAME":"TEME","OBJECT_NAME":"STARLINK-2575","SEMIMAJOR_AXIS":"6925.338","APOAPSIS":"548.400","PERIAPSIS":"546.006","RA_OF_ASC_NODE":"356.9702","TIME_SYSTEM":"UTC","ECCENTRICITY":"0.00017290","OBJECT_TYPE":"PAYLOAD","ELEMENT_SET_NO":"999","INCLINATION":"53.0556","CENTER_NAME":"EARTH","TLE_LINE1":"1 48396U 21038AV  22082.79914893 -.00001238  00000-0 -64213-4 0  9994"}];
